XRISM                   
1 57800U 23137A   24160.85018747  .00008272  00000+0  62393-3 0  9993
2 57800  31.0042  65.6807 0009277 126.5285 233.6205 15.01125975 41437
